[
    {
        "OBJECT_NAME": "STARLINK-4596",
        "OBJECT_ID": "2022-104AN",
        "EPOCH": "2023-09-14T10:25:03.190080",
        "MEAN_MOTION": 15.08817068,
        "ECCENTRICITY": 0.0001274,
        "INCLINATION": 53.2187,
        "RA_OF_ASC_NODE": 346.7096,
        "ARG_OF_PERICENTER": 75.0147,
        "MEAN_ANOMALY": 285.0986,
        "EPHEMERIS_TYPE": 0,
        "CLASSIFICATION_TYPE": "U",
        "NORAD_CAT_ID": 53624,
        "ELEMENT_SET_NO": 999,
        "REV_AT_EPOCH": 5810,
        "BSTAR": -0.00031328,
        "MEAN_MOTION_DOT": -0.00005267,
        "MEAN_MOTION_DDOT": 0
    },
    {
        "OBJECT_NAME": "STARLINK-4603",
        "OBJECT_ID": "2022-104AP",
        "EPOCH": "2023-09-13T23:22:38.471232",
        "MEAN_MOTION": 15.08811899,
        "ECCENTRICITY": 0.000134,
        "INCLINATION": 53.218,
        "RA_OF_ASC_NODE": 348.811,
        "ARG_OF_PERICENTER": 89.2424,
        "MEAN_ANOMALY": 270.8722,
        "EPHEMERIS_TYPE": 0,
        "CLASSIFICATION_TYPE": "U",
        "NORAD_CAT_ID": 53625,
        "ELEMENT_SET_NO": 999,
        "REV_AT_EPOCH": 5803,
        "BSTAR": -0.00062478,
        "MEAN_MOTION_DOT": -0.0001021,
        "MEAN_MOTION_DDOT": 0
    },
    {
        "OBJECT_NAME": "STARLINK-4554",
        "OBJECT_ID": "2022-104AQ",
        "EPOCH": "2023-09-14T10:09:07.451424",
        "MEAN_MOTION": 15.08806249,
        "ECCENTRICITY": 0.0001451,
        "INCLINATION": 53.2191,
        "RA_OF_ASC_NODE": 346.6429,
        "ARG_OF_PERICENTER": 82.9358,
        "MEAN_ANOMALY": 277.1799,
        "EPHEMERIS_TYPE": 0,
        "CLASSIFICATION_TYPE": "U",
        "NORAD_CAT_ID": 53626,
        "ELEMENT_SET_NO": 999,
        "REV_AT_EPOCH": 5810,
        "BSTAR": -0.00050474,
        "MEAN_MOTION_DOT": -0.00008304,
        "MEAN_MOTION_DDOT": 0
    },
    {
        "OBJECT_NAME": "STARLINK-4595",
        "OBJECT_ID": "2022-104AR",
        "EPOCH": "2023-09-14T10:19:44.731776",
        "MEAN_MOTION": 15.08828483,
        "ECCENTRICITY": 0.0001634,
        "INCLINATION": 53.2189,
        "RA_OF_ASC_NODE": 346.6842,
        "ARG_OF_PERICENTER": 124.946,
        "MEAN_ANOMALY": 235.1686,
        "EPHEMERIS_TYPE": 0,
        "CLASSIFICATION_TYPE": "U",
        "NORAD_CAT_ID": 53627,
        "ELEMENT_SET_NO": 999,
        "REV_AT_EPOCH": 5810,
        "BSTAR": -0.000064076,
        "MEAN_MOTION_DOT": -0.00001307,
        "MEAN_MOTION_DDOT": 0
    },
    {
        "OBJECT_NAME": "STARLINK-4600",
        "OBJECT_ID": "2022-104AS",
        "EPOCH": "2023-09-14T09:58:31.508544",
        "MEAN_MOTION": 15.08811031,
        "ECCENTRICITY": 0.0001513,
        "INCLINATION": 53.2192,
        "RA_OF_ASC_NODE": 346.599,
        "ARG_OF_PERICENTER": 84.7553,
        "MEAN_ANOMALY": 275.3612,
        "EPHEMERIS_TYPE": 0,
        "CLASSIFICATION_TYPE": "U",
        "NORAD_CAT_ID": 53628,
        "ELEMENT_SET_NO": 999,
        "REV_AT_EPOCH": 5810,
        "BSTAR": -0.00041706,
        "MEAN_MOTION_DOT": -0.00006914,
        "MEAN_MOTION_DDOT": 0
    },
    {
        "OBJECT_NAME": "STARLINK-4602",
        "OBJECT_ID": "2022-104AT",
        "EPOCH": "2023-09-14T10:14:26.094624",
        "MEAN_MOTION": 15.08812011,
        "ECCENTRICITY": 0.0001565,
        "INCLINATION": 53.2191,
        "RA_OF_ASC_NODE": 346.6613,
        "ARG_OF_PERICENTER": 90.2279,
        "MEAN_ANOMALY": 269.8892,
        "EPHEMERIS_TYPE": 0,
        "CLASSIFICATION_TYPE": "U",
        "NORAD_CAT_ID": 53629,
        "ELEMENT_SET_NO": 999,
        "REV_AT_EPOCH": 5810,
        "BSTAR": -0.00051372,
        "MEAN_MOTION_DOT": -0.00008448,
        "MEAN_MOTION_DDOT": 0
    },
    {
        "OBJECT_NAME": "STARLINK-4598",
        "OBJECT_ID": "2022-104AU",
        "EPOCH": "2023-09-14T09:28:07.833504",
        "MEAN_MOTION": 15.08822129,
        "ECCENTRICITY": 0.0001251,
        "INCLINATION": 53.2183,
        "RA_OF_ASC_NODE": 337.1904,
        "ARG_OF_PERICENTER": 101.8647,
        "MEAN_ANOMALY": 258.2485,
        "EPHEMERIS_TYPE": 0,
        "CLASSIFICATION_TYPE": "U",
        "NORAD_CAT_ID": 53630,
        "ELEMENT_SET_NO": 999,
        "REV_AT_EPOCH": 5823,
        "BSTAR": 0.000099315,
        "MEAN_MOTION_DOT": 0.00001292,
        "MEAN_MOTION_DDOT": 0
    },
    {
        "OBJECT_NAME": "STARLINK-4599",
        "OBJECT_ID": "2022-104AV",
        "EPOCH": "2023-09-14T10:03:49.869216",
        "MEAN_MOTION": 15.08811453,
        "ECCENTRICITY": 0.0001512,
        "INCLINATION": 53.2196,
        "RA_OF_ASC_NODE": 346.6214,
        "ARG_OF_PERICENTER": 85.8179,
        "MEAN_ANOMALY": 274.2986,
        "EPHEMERIS_TYPE": 0,
        "CLASSIFICATION_TYPE": "U",
        "NORAD_CAT_ID": 53631,
        "ELEMENT_SET_NO": 999,
        "REV_AT_EPOCH": 5810,
        "BSTAR": -0.00038488,
        "MEAN_MOTION_DOT": -0.00006403,
        "MEAN_MOTION_DDOT": 0
    },
    {
        "OBJECT_NAME": "STARLINK-4606",
        "OBJECT_ID": "2022-104AW",
        "EPOCH": "2023-09-13T22:09:50.134752",
        "MEAN_MOTION": 15.08818599,
        "ECCENTRICITY": 0.0002159,
        "INCLINATION": 53.2186,
        "RA_OF_ASC_NODE": 339.226,
        "ARG_OF_PERICENTER": 81.8135,
        "MEAN_ANOMALY": 278.3101,
        "EPHEMERIS_TYPE": 0,
        "CLASSIFICATION_TYPE": "U",
        "NORAD_CAT_ID": 53632,
        "ELEMENT_SET_NO": 999,
        "REV_AT_EPOCH": 5816,
        "BSTAR": -0.00013709,
        "MEAN_MOTION_DOT": -0.00002468,
        "MEAN_MOTION_DDOT": 0
    },
    {
        "OBJECT_NAME": "STARLINK-4593",
        "OBJECT_ID": "2022-104AX",
        "EPOCH": "2023-09-14T09:22:49.655136",
        "MEAN_MOTION": 15.08812974,
        "ECCENTRICITY": 0.0001432,
        "INCLINATION": 53.2182,
        "RA_OF_ASC_NODE": 337.1669,
        "ARG_OF_PERICENTER": 110.7368,
        "MEAN_ANOMALY": 249.3778,
        "EPHEMERIS_TYPE": 0,
        "CLASSIFICATION_TYPE": "U",
        "NORAD_CAT_ID": 53633,
        "ELEMENT_SET_NO": 999,
        "REV_AT_EPOCH": 5823,
        "BSTAR": -0.00053656,
        "MEAN_MOTION_DOT": -0.00008811,
        "MEAN_MOTION_DDOT": 0
    },
    {
        "OBJECT_NAME": "STARLINK-4592",
        "OBJECT_ID": "2022-104AY",
        "EPOCH": "2023-09-14T09:06:55.983168",
        "MEAN_MOTION": 15.08812357,
        "ECCENTRICITY": 0.0001334,
        "INCLINATION": 53.219,
        "RA_OF_ASC_NODE": 337.1006,
        "ARG_OF_PERICENTER": 91.0227,
        "MEAN_ANOMALY": 269.0918,
        "EPHEMERIS_TYPE": 0,
        "CLASSIFICATION_TYPE": "U",
        "NORAD_CAT_ID": 53634,
        "ELEMENT_SET_NO": 999,
        "REV_AT_EPOCH": 5823,
        "BSTAR": -0.00024347,
        "MEAN_MOTION_DOT": -0.00004158,
        "MEAN_MOTION_DDOT": 0
    },
    {
        "OBJECT_NAME": "STARLINK-4587",
        "OBJECT_ID": "2022-104AZ",
        "EPOCH": "2023-09-14T10:47:36.796416",
        "MEAN_MOTION": 15.0882429,
        "ECCENTRICITY": 0.0001837,
        "INCLINATION": 53.2195,
        "RA_OF_ASC_NODE": 336.8185,
        "ARG_OF_PERICENTER": 121.3223,
        "MEAN_ANOMALY": 238.7949,
        "EPHEMERIS_TYPE": 0,
        "CLASSIFICATION_TYPE": "U",
        "NORAD_CAT_ID": 53635,
        "ELEMENT_SET_NO": 999,
        "REV_AT_EPOCH": 5824,
        "BSTAR": -0.00012926,
        "MEAN_MOTION_DOT": -0.00002344,
        "MEAN_MOTION_DDOT": 0
    }
]