STARLINK-4596           
1 53624U 22104AN  23257.43406470 -.00005267  00000+0 -31328-3 0  9997
2 53624  53.2187 346.7096 0001274  75.0147 285.0986 15.08817068 58107
STARLINK-4603           
1 53625U 22104AP  23256.97405638 -.00010210  00000+0 -62478-3 0  9995
2 53625  53.2180 348.8110 0001340  89.2424 270.8722 15.08811899 58038
STARLINK-4554           
1 53626U 22104AQ  23257.42300291 -.00008304  00000+0 -50474-3 0  9990
2 53626  53.2191 346.6429 0001451  82.9358 277.1799 15.08806249 58104
STARLINK-4595           
1 53627U 22104AR  23257.43037884 -.00001307  00000+0 -64076-4 0  9997
2 53627  53.2189 346.6842 0001634 124.9460 235.1686 15.08828483 58108
STARLINK-4600           
1 53628U 22104AS  23257.41564246 -.00006914  00000+0 -41706-3 0  9996
2 53628  53.2192 346.5990 0001513  84.7553 275.3612 15.08811031 58104
STARLINK-4602           
1 53629U 22104AT  23257.42669091 -.00008448  00000+0 -51372-3 0  9996
2 53629  53.2191 346.6613 0001565  90.2279 269.8892 15.08812011 58108
STARLINK-4598           
1 53630U 22104AU  23257.39453511  .00001292  00000+0  99315-4 0  9990
2 53630  53.2183 337.1904 0001251 101.8647 258.2485 15.08822129 58234
STARLINK-4599           
1 53631U 22104AV  23257.41932719 -.00006403  00000+0 -38488-3 0  9990
2 53631  53.2196 346.6214 0001512  85.8179 274.2986 15.08811453 58107
STARLINK-4606           
1 53632U 22104AW  23256.92349693 -.00002468  00000+0 -13709-3 0  9995
2 53632  53.2186 339.2260 0002159  81.8135 278.3101 15.08818599 58160
STARLINK-4593           
1 53633U 22104AX  23257.39085249 -.00008811  00000+0 -53656-3 0  9995
2 53633  53.2182 337.1669 0001432 110.7368 249.3778 15.08812974 58237
STARLINK-4592           
1 53634U 22104AY  23257.37981462 -.00004158  00000+0 -24347-3 0  9991
2 53634  53.2190 337.1006 0001334  91.0227 269.0918 15.08812357 58238
STARLINK-4587           
1 53635U 22104AZ  23257.44973144 -.00002344  00000+0 -12926-3 0  9993
2 53635  53.2195 336.8185 0001837 121.3223 238.7949 15.08824290 58246
